GLOBALSTAR M069         
1 31573U 07020C   26176.54387612 -.00000060  00000+0  30421-3 0  9995
2 31573  52.0009 228.4743 0002148 166.3867 341.7045 12.23471416879828
GLOBALSTAR M072         
1 31574U 07020D   26177.03587301 -.00000090  00000+0 -81172-4 0  9992
2 31574  51.9936  76.6878 0001512 354.0091 108.2725 11.91658402876034
GLOBALSTAR M066         
1 32265U 07048C   26176.94147718 -.00000132  00000+0 -32135-3 0  9994
2 32265  51.9609  32.7817 0005618  62.7065  45.6466 12.30386859861308
GLOBALSTAR M079         
1 37188U 10054A   26176.92991714 -.00000115  00000+0 -64042-4 0  9999
2 37188  52.0044  82.0558 0000899  43.6644  36.7334 12.62266160723656
GLOBALSTAR M074         
1 37189U 10054B   26176.50103204 -.00000113  00000+0 -53701-4 0  9991
2 37189  52.0023  82.6248 0000717  63.8298 107.0045 12.62268400724206
GLOBALSTAR M076         
1 37190U 10054C   26176.90305970 -.00000116  00000+0 -69137-4 0  9994
2 37190  52.0029  81.6049 0000920  59.6971  18.7735 12.62261877723977
GLOBALSTAR M077         
1 37191U 10054D   26177.18636965 -.00000065  00000+0  24596-3 0  9998
2 37191  51.9924 156.4534 0002591 189.0932 186.0181 11.67547937722196
GLOBALSTAR M075         
1 37192U 10054E   26177.15904929 -.00000111  00000+0 -38939-4 0  9994
2 37192  51.9938 122.8746 0000380  35.3918  66.9982 12.62267371723075
GLOBALSTAR M073         
1 37193U 10054F   26177.01072503 -.00000091  00000+0  68682-4 0  9998
2 37193  52.0074  37.4341 0001058  65.3476  81.1419 12.62266636725042
GLOBALSTAR M083         
1 37739U 11033A   26177.18745677 -.00000074  00000+0  16583-3 0  9992
2 37739  51.9879 345.1120 0000960  81.4540  89.9223 12.62263607694088
GLOBALSTAR M088         
1 37740U 11033B   26176.60113076 -.00000088  00000+0  90488-4 0  9994
2 37740  52.0205 253.3478 0000525 139.2589   4.9184 12.62268972689552
GLOBALSTAR M091         
1 37741U 11033C   26177.31289353 -.00000081  00000+0  12741-3 0  9994
2 37741  51.9970 214.1331 0000077 177.7296 263.2481 12.62264071690432
GLOBALSTAR M085         
1 37742U 11033D   26177.28488667 -.00000092  00000+0  67773-4 0  9998
2 37742  52.0098 165.5167 0000317 353.0409  20.6745 12.62264170690948
GLOBALSTAR M081         
1 37743U 11033E   26177.23203899 -.00000087  00000+0  90824-4 0  9993
2 37743  51.9930 168.1037 0000215  36.5022 336.6538 12.62265217691087
GLOBALSTAR M089         
1 37744U 11033F   26176.88016579 -.00000108  00000+0 -25573-4 0  9995
2 37744  51.9918 123.3318 0000468  78.1481 316.2089 12.62267346691888
GLOBALSTAR M084         
1 38040U 11080A   26177.24013407 -.00000095  00000+0  49990-4 0  9998
2 38040  52.0028 349.7218 0001099 100.2401  70.5922 12.62267637669902
GLOBALSTAR M080         
1 38041U 11080B   26176.88963855 -.00000084  00000+0  10923-3 0  9990
2 38041  52.0083 352.5100 0000419  77.4579  69.9865 12.62269684669982
GLOBALSTAR M082         
1 38042U 11080C   26176.82973512 -.00000103  00000+0  28681-5 0  9990
2 38042  52.0091 308.1947 0000483 105.6187  59.3357 12.62263705670684
GLOBALSTAR M092         
1 38043U 11080D   26176.94933463 -.00000098  00000+0  30982-4 0  9994
2 38043  52.0097  38.2277 0000812  76.0763  31.7414 12.62267085669158
GLOBALSTAR M090         
1 38044U 11080E   26176.77693227 -.00000104  00000+0  13154-5 0  9998
2 38044  52.0135 302.3137 0000735 101.7109  62.3604 12.62269095670792
GLOBALSTAR M086         
1 38045U 11080F   26176.79853847 -.00000075  00000+0  16062-3 0  9993
2 38045  51.9911 302.1638 0001694  82.0897  81.7934 12.62287192670741
GLOBALSTAR M097         
1 39072U 13005A   26177.26912293 -.00000075  00000+0  15968-3 0  9991
2 39072  52.0017 215.6911 0000135 101.3009 258.7873 12.62271179618054
GLOBALSTAR M093         
1 39073U 13005B   26177.24227423 -.00000082  00000+0  12316-3 0  9996
2 39073  52.0075 209.1219 0000210  42.4630 317.6253 12.62266041618001
GLOBALSTAR M094         
1 39074U 13005C   26177.16296224 -.00000118  00000+0 -81562-4 0  9994
2 39074  51.9944 123.4695 0000637  26.7983 333.2916 12.62268484619600
GLOBALSTAR M096         
1 39075U 13005D   26177.25564900 -.00000094  00000+0  51738-4 0  9998
2 39075  52.0044 171.9966 0000254 358.7233   1.3633 12.62265644618539
GLOBALSTAR M078         
1 39076U 13005E   26176.59523364 -.00000001  00000+0  57558-3 0  9997
2 39076  51.9866 258.0065 0000484 265.9200  94.1612 12.62259356617073
GLOBALSTAR M095         
1 39077U 13005F   26176.46358825 -.00000093  00000+0  58773-4 0  9994
2 39077  52.0077 256.0234 0000078 114.0594 246.0281 12.62263562616911
GLOBALSTAR M087         
1 52888U 22064A   26176.63515627 -.00000101  00000+0  17061-4 0  9993
2 52888  52.0010  36.7333 0000876  55.5990 304.4960 12.62269213192204
