OBJECT_NAME,OBJECT_ID,EPOCH,MEAN_MOTION,ECCENTRICITY,INCLINATION,RA_OF_ASC_NODE,ARG_OF_PERICENTER,MEAN_ANOMALY,EPHEMERIS_TYPE,CLASSIFICATION_TYPE,NORAD_CAT_ID,ELEMENT_SET_NO,REV_AT_EPOCH,BSTAR,MEAN_MOTION_DOT,MEAN_MOTION_DDOT
GLOBALSTAR M069,2007-020C,2026-06-25T13:03:10.896768,12.23471416,.0002148,52.0009,228.4743,166.3867,341.7045,0,U,31573,999,87982,.30421E-3,-.6E-6,0
GLOBALSTAR M072,2007-020D,2026-06-26T00:51:39.428064,11.91658402,.00015121,51.9936,76.6878,354.0091,108.2725,0,U,31574,999,87603,-.81171678E-4,-.9E-6,0
GLOBALSTAR M066,2007-048C,2026-06-25T22:35:43.628352,12.30386859,.00056181,51.9609,32.7817,62.7065,45.6466,0,U,32265,999,86130,-.32134681E-3,-.132E-5,0
GLOBALSTAR M079,2010-054A,2026-06-25T22:19:04.840896,12.62266160,.00008993,52.0044,82.0558,43.6644,36.7334,0,U,37188,999,72365,-.64042055E-4,-.115E-5,0
GLOBALSTAR M074,2010-054B,2026-06-25T12:01:29.168256,12.62268400,.0000717,52.0023,82.6248,63.8298,107.0045,0,U,37189,999,72420,-.53701E-4,-.113E-5,0
GLOBALSTAR M076,2010-054C,2026-06-25T21:40:24.358080,12.62261877,.00009209,52.0029,81.6049,59.6971,18.7735,0,U,37190,999,72397,-.69137222E-4,-.116E-5,0
GLOBALSTAR M077,2010-054D,2026-06-26T04:28:22.337760,11.67547937,.00025918,51.9924,156.4534,189.0932,186.0181,0,U,37191,999,72219,.24596068E-3,-.65E-6,0
GLOBALSTAR M075,2010-054E,2026-06-26T03:49:01.858656,12.62267371,.00003804,51.9938,122.8746,35.3918,66.9982,0,U,37192,999,72307,-.38939331E-4,-.111E-5,0
GLOBALSTAR M073,2010-054F,2026-06-26T00:15:26.642592,12.62266636,.00010586,52.0074,37.4341,65.3476,81.1419,0,U,37193,999,72504,.68682259E-4,-.91E-6,0
GLOBALSTAR M083,2011-033A,2026-06-26T04:29:56.264928,12.62263607,.000096,51.9879,345.1120,81.4540,89.9223,0,U,37739,999,69408,.16582798E-3,-.74E-6,0
GLOBALSTAR M088,2011-033B,2026-06-25T14:25:37.697664,12.62268972,.00005251,52.0205,253.3478,139.2589,4.9184,0,U,37740,999,68955,.90488001E-4,-.88E-6,0
GLOBALSTAR M091,2011-033C,2026-06-26T07:30:34.000992,12.62264071,.00000777,51.9970,214.1331,177.7296,263.2481,0,U,37741,999,69043,.12740827E-3,-.81E-6,0
GLOBALSTAR M085,2011-033D,2026-06-26T06:50:14.208288,12.62264170,.00003175,52.0098,165.5167,353.0409,20.6745,0,U,37742,999,69094,.6777263E-4,-.92E-6,0
GLOBALSTAR M081,2011-033E,2026-06-26T05:34:08.168736,12.62265217,.00002158,51.9930,168.1037,36.5022,336.6538,0,U,37743,999,69108,.90824106E-4,-.87E-6,0
GLOBALSTAR M089,2011-033F,2026-06-25T21:07:26.324256,12.62267346,.00004686,51.9918,123.3318,78.1481,316.2089,0,U,37744,999,69188,-.25573139E-4,-.108E-5,0
GLOBALSTAR M084,2011-080A,2026-06-26T05:45:47.583648,12.62267637,.00010991,52.0028,349.7218,100.2401,70.5922,0,U,38040,999,66990,.49989596E-4,-.95E-6,0
GLOBALSTAR M080,2011-080B,2026-06-25T21:21:04.770720,12.62269684,.00004198,52.0083,352.5100,77.4579,69.9865,0,U,38041,999,66998,.10923224E-3,-.84E-6,0
GLOBALSTAR M082,2011-080C,2026-06-25T19:54:49.114368,12.62263705,.00004837,52.0091,308.1947,105.6187,59.3357,0,U,38042,999,67068,.2868117E-5,-.103E-5,0
GLOBALSTAR M092,2011-080D,2026-06-25T22:47:02.512032,12.62267085,.00008122,52.0097,38.2277,76.0763,31.7414,0,U,38043,999,66915,.3098207E-4,-.98E-6,0
GLOBALSTAR M090,2011-080E,2026-06-25T18:38:46.948128,12.62269095,.0000735,52.0135,302.3137,101.7109,62.3604,0,U,38044,999,67079,.1315396E-5,-.104E-5,0
GLOBALSTAR M086,2011-080F,2026-06-25T19:09:53.723808,12.62287192,.00016947,51.9911,302.1638,82.0897,81.7934,0,U,38045,999,67074,.16061552E-3,-.75E-6,0
GLOBALSTAR M097,2013-005A,2026-06-26T06:27:32.221152,12.62271179,.00001354,52.0017,215.6911,101.3009,258.7873,0,U,39072,999,61805,.15967825E-3,-.75E-6,0
GLOBALSTAR M093,2013-005B,2026-06-26T05:48:52.493472,12.62266041,.00002104,52.0075,209.1219,42.4630,317.6253,0,U,39073,999,61800,.1231572E-3,-.82E-6,0
GLOBALSTAR M094,2013-005C,2026-06-26T03:54:39.937536,12.62268484,.00006372,51.9944,123.4695,26.7983,333.2916,0,U,39074,999,61960,-.81562452E-4,-.118E-5,0
GLOBALSTAR M096,2013-005D,2026-06-26T06:08:08.073600,12.62265644,.00002543,52.0044,171.9966,358.7233,1.3633,0,U,39075,999,61853,.51737883E-4,-.94E-6,0
GLOBALSTAR M078,2013-005E,2026-06-25T14:17:08.186496,12.62259356,.00004845,51.9866,258.0065,265.9200,94.1612,0,U,39076,999,61707,.57557649E-3,-.1E-7,0
GLOBALSTAR M095,2013-005F,2026-06-25T11:07:34.024800,12.62263562,.0000078,52.0077,256.0234,114.0594,246.0281,0,U,39077,999,61691,.58773E-4,-.93E-6,0
GLOBALSTAR M087,2022-064A,2026-06-25T15:14:37.501728,12.62269213,.00008768,52.0010,36.7333,55.5990,304.4960,0,U,52888,999,19220,.17060701E-4,-.101E-5,0
